[{"OBJECT_NAME":"STARLINK-11257 [DTC]","OBJECT_ID":"2024-171B","EPOCH":"2026-03-09T14:31:26.503104","MEAN_MOTION":15.69713442,"ECCENTRICITY":8.38e-5,"INCLINATION":53.158,"RA_OF_ASC_NODE":176.8113,"ARG_OF_PERICENTER":94.8431,"MEAN_ANOMALY":265.2682,"EPHEMERIS_TYPE":0,"CLASSIFICATION_TYPE":"U","NORAD_CAT_ID":61201,"ELEMENT_SET_NO":999,"REV_AT_EPOCH":8438,"BSTAR":-2.3178e-5,"MEAN_MOTION_DOT":-3.395e-5,"MEAN_MOTION_DDOT":0},{"OBJECT_NAME":"HORIZON (RS59S)","OBJECT_ID":"2024-199Y","EPOCH":"2026-03-09T22:30:11.638080","MEAN_MOTION":15.70291895,"ECCENTRICITY":0.00030615,"INCLINATION":97.3063,"RA_OF_ASC_NODE":307.7521,"ARG_OF_PERICENTER":244.864,"MEAN_ANOMALY":115.2305,"EPHEMERIS_TYPE":0,"CLASSIFICATION_TYPE":"U","NORAD_CAT_ID":61757,"ELEMENT_SET_NO":999,"REV_AT_EPOCH":12246,"BSTAR":0.00120059,"MEAN_MOTION_DOT":0.00148042,"MEAN_MOTION_DDOT":0}]
